CCSDS_OMM_VERS = 2.0
CREATION_DATE  = 
ORIGINATOR     = 

OBJECT_NAME    = STARLINK-36749
OBJECT_ID      = 2026-026P
CENTER_NAME    = EARTH
REF_FRAME      = TEME
TIME_SYSTEM    = UTC
MEAN_ELEMENT_THEORY = SGP/SGP4

EPOCH          = 2026-03-06T06:00:02.000160
MEAN_MOTION    = 15.57005803
ECCENTRICITY   = .0001634
INCLINATION    = 97.2836
RA_OF_ASC_NODE = 119.7149
ARG_OF_PERICENTER = 59.6336
MEAN_ANOMALY   = 34.6422

EPHEMERIS_TYPE = 0
CLASSIFICATION_TYPE = U
NORAD_CAT_ID   = 67734
ELEMENT_SET_NO = 999
REV_AT_EPOCH   = 476
BSTAR          = -.30361744E-1
MEAN_MOTION_DOT = -.1930213E-1
MEAN_MOTION_DDOT = 0

CCSDS_OMM_VERS = 2.0
CREATION_DATE  = 
ORIGINATOR     = 

OBJECT_NAME    = STARLINK-36691
OBJECT_ID      = 2026-026Q
CENTER_NAME    = EARTH
REF_FRAME      = TEME
TIME_SYSTEM    = UTC
MEAN_ELEMENT_THEORY = SGP/SGP4

EPOCH          = 2026-03-06T06:00:02.000160
MEAN_MOTION    = 15.64140367
ECCENTRICITY   = .00017167
INCLINATION    = 97.2837
RA_OF_ASC_NODE = 119.7724
ARG_OF_PERICENTER = 82.3523
MEAN_ANOMALY   = 154.3680

EPHEMERIS_TYPE = 0
CLASSIFICATION_TYPE = U
NORAD_CAT_ID   = 67735
ELEMENT_SET_NO = 999
REV_AT_EPOCH   = 489
BSTAR          = -.2394288E-1
MEAN_MOTION_DOT = -.199533E-1
MEAN_MOTION_DDOT = 0

CCSDS_OMM_VERS = 2.0
CREATION_DATE  = 
ORIGINATOR     = 

OBJECT_NAME    = STARLINK-36317
OBJECT_ID      = 2026-026R
CENTER_NAME    = EARTH
REF_FRAME      = TEME
TIME_SYSTEM    = UTC
MEAN_ELEMENT_THEORY = SGP/SGP4

EPOCH          = 2026-03-06T06:00:02.000160
MEAN_MOTION    = 15.63887971
ECCENTRICITY   = .00017253
INCLINATION    = 97.2837
RA_OF_ASC_NODE = 119.7669
ARG_OF_PERICENTER = 84.5570
MEAN_ANOMALY   = 139.0266

EPHEMERIS_TYPE = 0
CLASSIFICATION_TYPE = U
NORAD_CAT_ID   = 67736
ELEMENT_SET_NO = 999
REV_AT_EPOCH   = 476
BSTAR          = -.24207854E-1
MEAN_MOTION_DOT = -.1997085E-1
MEAN_MOTION_DDOT = 0

CCSDS_OMM_VERS = 2.0
CREATION_DATE  = 
ORIGINATOR     = 

OBJECT_NAME    = STARLINK-36330
OBJECT_ID      = 2026-026S
CENTER_NAME    = EARTH
REF_FRAME      = TEME
TIME_SYSTEM    = UTC
MEAN_ELEMENT_THEORY = SGP/SGP4

EPOCH          = 2026-03-06T06:00:02.000160
MEAN_MOTION    = 15.64203745
ECCENTRICITY   = .00017486
INCLINATION    = 97.2839
RA_OF_ASC_NODE = 119.7759
ARG_OF_PERICENTER = 79.8168
MEAN_ANOMALY   = 164.5693

EPHEMERIS_TYPE = 0
CLASSIFICATION_TYPE = U
NORAD_CAT_ID   = 67737
ELEMENT_SET_NO = 999
REV_AT_EPOCH   = 476
BSTAR          = -.23401041E-1
MEAN_MOTION_DOT = -.1959851E-1
MEAN_MOTION_DDOT = 0

CCSDS_OMM_VERS = 2.0
CREATION_DATE  = 
ORIGINATOR     = 

OBJECT_NAME    = STARLINK-36327
OBJECT_ID      = 2026-026T
CENTER_NAME    = EARTH
REF_FRAME      = TEME
TIME_SYSTEM    = UTC
MEAN_ELEMENT_THEORY = SGP/SGP4

EPOCH          = 2026-03-06T06:00:02.000160
MEAN_MOTION    = 15.64530672
ECCENTRICITY   = .00015778
INCLINATION    = 97.2839
RA_OF_ASC_NODE = 119.7814
ARG_OF_PERICENTER = 77.6450
MEAN_ANOMALY   = 178.8021

EPHEMERIS_TYPE = 0
CLASSIFICATION_TYPE = U
NORAD_CAT_ID   = 67738
ELEMENT_SET_NO = 999
REV_AT_EPOCH   = 476
BSTAR          = -.23577661E-1
MEAN_MOTION_DOT = -.1995485E-1
MEAN_MOTION_DDOT = 0

CCSDS_OMM_VERS = 2.0
CREATION_DATE  = 
ORIGINATOR     = 

OBJECT_NAME    = STARLINK-36329
OBJECT_ID      = 2026-026U
CENTER_NAME    = EARTH
REF_FRAME      = TEME
TIME_SYSTEM    = UTC
MEAN_ELEMENT_THEORY = SGP/SGP4

EPOCH          = 2026-03-06T06:00:02.000160
MEAN_MOTION    = 15.65567356
ECCENTRICITY   = .00013741
INCLINATION    = 97.2840
RA_OF_ASC_NODE = 119.8057
ARG_OF_PERICENTER = 65.2930
MEAN_ANOMALY   = 253.2672

EPHEMERIS_TYPE = 0
CLASSIFICATION_TYPE = U
NORAD_CAT_ID   = 67739
ELEMENT_SET_NO = 999
REV_AT_EPOCH   = 476
BSTAR          = -.22743893E-1
MEAN_MOTION_DOT = -.2004958E-1
MEAN_MOTION_DDOT = 0

CCSDS_OMM_VERS = 2.0
CREATION_DATE  = 
ORIGINATOR     = 

OBJECT_NAME    = STARLINK-36737
OBJECT_ID      = 2026-026V
CENTER_NAME    = EARTH
REF_FRAME      = TEME
TIME_SYSTEM    = UTC
MEAN_ELEMENT_THEORY = SGP/SGP4

EPOCH          = 2026-03-06T06:00:02.000160
MEAN_MOTION    = 15.64681540
ECCENTRICITY   = .00014057
INCLINATION    = 97.2840
RA_OF_ASC_NODE = 119.7852
ARG_OF_PERICENTER = 75.6868
MEAN_ANOMALY   = 191.6616

EPHEMERIS_TYPE = 0
CLASSIFICATION_TYPE = U
NORAD_CAT_ID   = 67740
ELEMENT_SET_NO = 999
REV_AT_EPOCH   = 476
BSTAR          = -.23409474E-1
MEAN_MOTION_DOT = -.1993342E-1
MEAN_MOTION_DDOT = 0

CCSDS_OMM_VERS = 2.0
CREATION_DATE  = 
ORIGINATOR     = 

OBJECT_NAME    = STARLINK-36740
OBJECT_ID      = 2026-026W
CENTER_NAME    = EARTH
REF_FRAME      = TEME
TIME_SYSTEM    = UTC
MEAN_ELEMENT_THEORY = SGP/SGP4

EPOCH          = 2026-03-06T06:00:02.000160
MEAN_MOTION    = 15.60394552
ECCENTRICITY   = .00018866
INCLINATION    = 97.2841
RA_OF_ASC_NODE = 119.7738
ARG_OF_PERICENTER = 75.5776
MEAN_ANOMALY   = 154.0817

EPHEMERIS_TYPE = 0
CLASSIFICATION_TYPE = U
NORAD_CAT_ID   = 67741
ELEMENT_SET_NO = 999
REV_AT_EPOCH   = 476
BSTAR          = -.26846939E-1
MEAN_MOTION_DOT = -.1940069E-1
MEAN_MOTION_DDOT = 0

CCSDS_OMM_VERS = 2.0
CREATION_DATE  = 
ORIGINATOR     = 

OBJECT_NAME    = STARLINK-36693
OBJECT_ID      = 2026-026X
CENTER_NAME    = EARTH
REF_FRAME      = TEME
TIME_SYSTEM    = UTC
MEAN_ELEMENT_THEORY = SGP/SGP4

EPOCH          = 2026-03-06T06:00:02.000160
MEAN_MOTION    = 15.61083301
ECCENTRICITY   = .00017574
INCLINATION    = 97.2839
RA_OF_ASC_NODE = 119.7656
ARG_OF_PERICENTER = 76.7524
MEAN_ANOMALY   = 142.0548

EPHEMERIS_TYPE = 0
CLASSIFICATION_TYPE = U
NORAD_CAT_ID   = 67742
ELEMENT_SET_NO = 999
REV_AT_EPOCH   = 489
BSTAR          = -.2681522E-1
MEAN_MOTION_DOT = -.1983879E-1
MEAN_MOTION_DDOT = 0

CCSDS_OMM_VERS = 2.0
CREATION_DATE  = 
ORIGINATOR     = 

OBJECT_NAME    = STARLINK-36717
OBJECT_ID      = 2026-026Y
CENTER_NAME    = EARTH
REF_FRAME      = TEME
TIME_SYSTEM    = UTC
MEAN_ELEMENT_THEORY = SGP/SGP4

EPOCH          = 2026-03-06T06:00:02.000160
MEAN_MOTION    = 15.63196664
ECCENTRICITY   = .00014389
INCLINATION    = 97.2839
RA_OF_ASC_NODE = 119.7862
ARG_OF_PERICENTER = 80.9946
MEAN_ANOMALY   = 187.1861

EPHEMERIS_TYPE = 0
CLASSIFICATION_TYPE = U
NORAD_CAT_ID   = 67743
ELEMENT_SET_NO = 999
REV_AT_EPOCH   = 489
BSTAR          = -.24828482E-1
MEAN_MOTION_DOT = -.1993357E-1
MEAN_MOTION_DDOT = 0

CCSDS_OMM_VERS = 2.0
CREATION_DATE  = 
ORIGINATOR     = 

OBJECT_NAME    = STARLINK-36692
OBJECT_ID      = 2026-026Z
CENTER_NAME    = EARTH
REF_FRAME      = TEME
TIME_SYSTEM    = UTC
MEAN_ELEMENT_THEORY = SGP/SGP4

EPOCH          = 2026-03-06T06:00:02.000160
MEAN_MOTION    = 15.61950991
ECCENTRICITY   = .00016397
INCLINATION    = 97.2839
RA_OF_ASC_NODE = 119.7751
ARG_OF_PERICENTER = 77.4827
MEAN_ANOMALY   = 163.9803

EPHEMERIS_TYPE = 0
CLASSIFICATION_TYPE = U
NORAD_CAT_ID   = 67744
ELEMENT_SET_NO = 999
REV_AT_EPOCH   = 476
BSTAR          = -.26005895E-1
MEAN_MOTION_DOT = -.198915E-1
MEAN_MOTION_DDOT = 0

CCSDS_OMM_VERS = 2.0
CREATION_DATE  = 
ORIGINATOR     = 

OBJECT_NAME    = 2026-027A
OBJECT_ID      = 2026-027A
CENTER_NAME    = EARTH
REF_FRAME      = TEME
TIME_SYSTEM    = UTC
MEAN_ELEMENT_THEORY = SGP/SGP4

EPOCH          = 2026-03-06T06:35:57.102144
MEAN_MOTION    = 15.17629769
ECCENTRICITY   = .00099063
INCLINATION    = 97.4904
RA_OF_ASC_NODE = 194.3242
ARG_OF_PERICENTER = 206.0079
MEAN_ANOMALY   = 154.0658

EPHEMERIS_TYPE = 0
CLASSIFICATION_TYPE = U
NORAD_CAT_ID   = 67746
ELEMENT_SET_NO = 999
REV_AT_EPOCH   = 334
BSTAR          = .49999369E-3
MEAN_MOTION_DOT = .10009E-3
MEAN_MOTION_DDOT = 0

