STARLINK-36749          
1 67734U 26026P   26065.25002315 -.01930213  00000+0 -30362-1 0  9995
2 67734  97.2836 119.7149 0001634  59.6336  34.6422 15.57005803  4764
STARLINK-36691          
1 67735U 26026Q   26065.25002315 -.01995330  00000+0 -23943-1 0  9994
2 67735  97.2837 119.7724 0001716  82.3523 154.3680 15.64140367  4890
STARLINK-36317          
1 67736U 26026R   26065.25002315 -.01997085  00000+0 -24208-1 0  9999
2 67736  97.2837 119.7669 0001725  84.5570 139.0266 15.63887971  4769
STARLINK-36330          
1 67737U 26026S   26065.25002315 -.01959851  00000+0 -23401-1 0  9993
2 67737  97.2839 119.7759 0001748  79.8168 164.5693 15.64203745  4766
STARLINK-36327          
1 67738U 26026T   26065.25002315 -.01995485  00000+0 -23578-1 0  9992
2 67738  97.2839 119.7814 0001577  77.6450 178.8021 15.64530672  4764
STARLINK-36329          
1 67739U 26026U   26065.25002315 -.02004958  00000+0 -22744-1 0  9994
2 67739  97.2840 119.8057 0001374  65.2930 253.2672 15.65567356  4768
STARLINK-36737          
1 67740U 26026V   26065.25002315 -.01993342  00000+0 -23409-1 0  9998
2 67740  97.2840 119.7852 0001405  75.6868 191.6616 15.64681540  4766
STARLINK-36740          
1 67741U 26026W   26065.25002315 -.01940069  00000+0 -26847-1 0  9996
2 67741  97.2841 119.7738 0001886  75.5776 154.0817 15.60394552  4767
STARLINK-36693          
1 67742U 26026X   26065.25002315 -.01983879  00000+0 -26815-1 0  9998
2 67742  97.2839 119.7656 0001757  76.7524 142.0548 15.61083301  4895
STARLINK-36717          
1 67743U 26026Y   26065.25002315 -.01993357  00000+0 -24828-1 0  9993
2 67743  97.2839 119.7862 0001438  80.9946 187.1861 15.63196664  4893
STARLINK-36692          
1 67744U 26026Z   26065.25002315 -.01989150  00000+0 -26006-1 0  9990
2 67744  97.2839 119.7751 0001639  77.4827 163.9803 15.61950991  4766
2026-027A               
1 67746U 26027A   26065.27496646  .00010009  00000+0  49999-3 0  9992
2 67746  97.4904 194.3242 0009906 206.0079 154.0658 15.17629769  3340
